STARLINK-36489          
1 67328U 26002Z   26032.00003472  .00068629  00000+0  11672-2 0  9994
2 67328  42.9995 173.5434 0001648 277.7697 142.7645 15.50535614  5679
STARLINK-36496          
1 67329U 26002AA  26032.00003472  .00043706  00000+0  74769-3 0  9991
2 67329  42.9997 173.5320 0002123 276.1732 148.2060 15.50539480  5507
STARLINK-36483          
1 67330U 26002AB  26032.00003472  .00044721  00000+0  76478-3 0  9990
2 67330  42.9997 173.5223 0001649 276.4410 151.7690 15.50541441  5675
STARLINK-36494          
1 67331U 26002AC  26032.00003472 -.00188175  00000+0 -32676-2 0  9996
2 67331  42.9998 173.5374 0002141 277.2911 145.1210 15.50676798  5676
STARLINK-36492          
1 67332U 26002AD  26032.00003472 -.00052824  00000+0 -89959-3 0  9995
2 67332  42.9996 173.5279 0001566 278.7498 147.5107 15.50612169  5678
STARLINK-36427          
1 67333U 26002AE  26032.25002315  .00053275  00000+0  12750-2 0  9991
2 67333  43.0008 172.3175 0001409 287.1139 344.6185 15.40669421  5622
STARLINK-35343          
1 67334U 26003A   26032.25002315 -.00333016  00000+0 -58855-2 0  9995
2 67334  42.9995  74.6710 0001558 272.4169 320.9038 15.50720005  4754
STARLINK-36486          
1 67335U 26003B   26032.25002315 -.00320424  00000+0 -56542-2 0  9996
2 67335  42.9992  74.6661 0001514 272.5912 322.6409 15.50717669  4816
STARLINK-36480          
1 67336U 26003C   26032.25002315 -.00337075  00000+0 -59601-2 0  9996
2 67336  42.9996  74.6617 0001763 274.8697 322.2895 15.50720220  4815
STARLINK-36410          
1 67337U 26003D   26032.25002315 -.00332076  00000+0 -58682-2 0  9991
2 67337  42.9994  74.6567 0001544 271.7725 327.2970 15.50719515  4817
STARLINK-36413          
1 67338U 26003E   26032.25002315 -.00331511  00000+0 -58586-2 0  9998
2 67338  42.9993  74.6519 0001495 272.4390 328.5494 15.50716068  4810
STARLINK-36451          
1 67339U 26003F   26032.25002315 -.00326182  00000+0 -57598-2 0  9999
2 67339  42.9992  74.6465 0001647 271.8830 331.0187 15.50718728  4814
