CCSDS_OMM_VERS = 2.0
CREATION_DATE  = 
ORIGINATOR     = 

OBJECT_NAME    = STARLINK-36489
OBJECT_ID      = 2026-002Z
CENTER_NAME    = EARTH
REF_FRAME      = TEME
TIME_SYSTEM    = UTC
MEAN_ELEMENT_THEORY = SGP/SGP4

EPOCH          = 2026-02-01T00:00:02.999808
MEAN_MOTION    = 15.50535614
ECCENTRICITY   = .00016481
INCLINATION    = 42.9995
RA_OF_ASC_NODE = 173.5434
ARG_OF_PERICENTER = 277.7697
MEAN_ANOMALY   = 142.7645

EPHEMERIS_TYPE = 0
CLASSIFICATION_TYPE = U
NORAD_CAT_ID   = 67328
ELEMENT_SET_NO = 999
REV_AT_EPOCH   = 567
BSTAR          = .11671899E-2
MEAN_MOTION_DOT = .68629E-3
MEAN_MOTION_DDOT = 0

CCSDS_OMM_VERS = 2.0
CREATION_DATE  = 
ORIGINATOR     = 

OBJECT_NAME    = STARLINK-36496
OBJECT_ID      = 2026-002AA
CENTER_NAME    = EARTH
REF_FRAME      = TEME
TIME_SYSTEM    = UTC
MEAN_ELEMENT_THEORY = SGP/SGP4

EPOCH          = 2026-02-01T00:00:02.999808
MEAN_MOTION    = 15.50539480
ECCENTRICITY   = .00021234
INCLINATION    = 42.9997
RA_OF_ASC_NODE = 173.5320
ARG_OF_PERICENTER = 276.1732
MEAN_ANOMALY   = 148.2060

EPHEMERIS_TYPE = 0
CLASSIFICATION_TYPE = U
NORAD_CAT_ID   = 67329
ELEMENT_SET_NO = 999
REV_AT_EPOCH   = 550
BSTAR          = .74768534E-3
MEAN_MOTION_DOT = .43706E-3
MEAN_MOTION_DDOT = 0

CCSDS_OMM_VERS = 2.0
CREATION_DATE  = 
ORIGINATOR     = 

OBJECT_NAME    = STARLINK-36483
OBJECT_ID      = 2026-002AB
CENTER_NAME    = EARTH
REF_FRAME      = TEME
TIME_SYSTEM    = UTC
MEAN_ELEMENT_THEORY = SGP/SGP4

EPOCH          = 2026-02-01T00:00:02.999808
MEAN_MOTION    = 15.50541441
ECCENTRICITY   = .00016494
INCLINATION    = 42.9997
RA_OF_ASC_NODE = 173.5223
ARG_OF_PERICENTER = 276.4410
MEAN_ANOMALY   = 151.7690

EPHEMERIS_TYPE = 0
CLASSIFICATION_TYPE = U
NORAD_CAT_ID   = 67330
ELEMENT_SET_NO = 999
REV_AT_EPOCH   = 567
BSTAR          = .76478405E-3
MEAN_MOTION_DOT = .44721E-3
MEAN_MOTION_DDOT = 0

CCSDS_OMM_VERS = 2.0
CREATION_DATE  = 
ORIGINATOR     = 

OBJECT_NAME    = STARLINK-36494
OBJECT_ID      = 2026-002AC
CENTER_NAME    = EARTH
REF_FRAME      = TEME
TIME_SYSTEM    = UTC
MEAN_ELEMENT_THEORY = SGP/SGP4

EPOCH          = 2026-02-01T00:00:02.999808
MEAN_MOTION    = 15.50676798
ECCENTRICITY   = .00021418
INCLINATION    = 42.9998
RA_OF_ASC_NODE = 173.5374
ARG_OF_PERICENTER = 277.2911
MEAN_ANOMALY   = 145.1210

EPHEMERIS_TYPE = 0
CLASSIFICATION_TYPE = U
NORAD_CAT_ID   = 67331
ELEMENT_SET_NO = 999
REV_AT_EPOCH   = 567
BSTAR          = -.3267601E-2
MEAN_MOTION_DOT = -.188175E-2
MEAN_MOTION_DDOT = 0

CCSDS_OMM_VERS = 2.0
CREATION_DATE  = 
ORIGINATOR     = 

OBJECT_NAME    = STARLINK-36492
OBJECT_ID      = 2026-002AD
CENTER_NAME    = EARTH
REF_FRAME      = TEME
TIME_SYSTEM    = UTC
MEAN_ELEMENT_THEORY = SGP/SGP4

EPOCH          = 2026-02-01T00:00:02.999808
MEAN_MOTION    = 15.50612169
ECCENTRICITY   = .00015665
INCLINATION    = 42.9996
RA_OF_ASC_NODE = 173.5279
ARG_OF_PERICENTER = 278.7498
MEAN_ANOMALY   = 147.5107

EPHEMERIS_TYPE = 0
CLASSIFICATION_TYPE = U
NORAD_CAT_ID   = 67332
ELEMENT_SET_NO = 999
REV_AT_EPOCH   = 567
BSTAR          = -.89958608E-3
MEAN_MOTION_DOT = -.52824E-3
MEAN_MOTION_DDOT = 0

CCSDS_OMM_VERS = 2.0
CREATION_DATE  = 
ORIGINATOR     = 

OBJECT_NAME    = STARLINK-36427
OBJECT_ID      = 2026-002AE
CENTER_NAME    = EARTH
REF_FRAME      = TEME
TIME_SYSTEM    = UTC
MEAN_ELEMENT_THEORY = SGP/SGP4

EPOCH          = 2026-02-01T06:00:02.000160
MEAN_MOTION    = 15.40669421
ECCENTRICITY   = .00014097
INCLINATION    = 43.0008
RA_OF_ASC_NODE = 172.3175
ARG_OF_PERICENTER = 287.1139
MEAN_ANOMALY   = 344.6185

EPHEMERIS_TYPE = 0
CLASSIFICATION_TYPE = U
NORAD_CAT_ID   = 67333
ELEMENT_SET_NO = 999
REV_AT_EPOCH   = 562
BSTAR          = .12750174E-2
MEAN_MOTION_DOT = .53275E-3
MEAN_MOTION_DDOT = 0

CCSDS_OMM_VERS = 2.0
CREATION_DATE  = 
ORIGINATOR     = 

OBJECT_NAME    = STARLINK-35343
OBJECT_ID      = 2026-003A
CENTER_NAME    = EARTH
REF_FRAME      = TEME
TIME_SYSTEM    = UTC
MEAN_ELEMENT_THEORY = SGP/SGP4

EPOCH          = 2026-02-01T06:00:02.000160
MEAN_MOTION    = 15.50720005
ECCENTRICITY   = .00015589
INCLINATION    = 42.9995
RA_OF_ASC_NODE = 74.6710
ARG_OF_PERICENTER = 272.4169
MEAN_ANOMALY   = 320.9038

EPHEMERIS_TYPE = 0
CLASSIFICATION_TYPE = U
NORAD_CAT_ID   = 67334
ELEMENT_SET_NO = 999
REV_AT_EPOCH   = 475
BSTAR          = -.58854703E-2
MEAN_MOTION_DOT = -.333016E-2
MEAN_MOTION_DDOT = 0

CCSDS_OMM_VERS = 2.0
CREATION_DATE  = 
ORIGINATOR     = 

OBJECT_NAME    = STARLINK-36486
OBJECT_ID      = 2026-003B
CENTER_NAME    = EARTH
REF_FRAME      = TEME
TIME_SYSTEM    = UTC
MEAN_ELEMENT_THEORY = SGP/SGP4

EPOCH          = 2026-02-01T06:00:02.000160
MEAN_MOTION    = 15.50717669
ECCENTRICITY   = .00015149
INCLINATION    = 42.9992
RA_OF_ASC_NODE = 74.6661
ARG_OF_PERICENTER = 272.5912
MEAN_ANOMALY   = 322.6409

EPHEMERIS_TYPE = 0
CLASSIFICATION_TYPE = U
NORAD_CAT_ID   = 67335
ELEMENT_SET_NO = 999
REV_AT_EPOCH   = 481
BSTAR          = -.56542174E-2
MEAN_MOTION_DOT = -.320424E-2
MEAN_MOTION_DDOT = 0

CCSDS_OMM_VERS = 2.0
CREATION_DATE  = 
ORIGINATOR     = 

OBJECT_NAME    = STARLINK-36480
OBJECT_ID      = 2026-003C
CENTER_NAME    = EARTH
REF_FRAME      = TEME
TIME_SYSTEM    = UTC
MEAN_ELEMENT_THEORY = SGP/SGP4

EPOCH          = 2026-02-01T06:00:02.000160
MEAN_MOTION    = 15.50720220
ECCENTRICITY   = .00017632
INCLINATION    = 42.9996
RA_OF_ASC_NODE = 74.6617
ARG_OF_PERICENTER = 274.8697
MEAN_ANOMALY   = 322.2895

EPHEMERIS_TYPE = 0
CLASSIFICATION_TYPE = U
NORAD_CAT_ID   = 67336
ELEMENT_SET_NO = 999
REV_AT_EPOCH   = 481
BSTAR          = -.59600638E-2
MEAN_MOTION_DOT = -.337075E-2
MEAN_MOTION_DDOT = 0

CCSDS_OMM_VERS = 2.0
CREATION_DATE  = 
ORIGINATOR     = 

OBJECT_NAME    = STARLINK-36410
OBJECT_ID      = 2026-003D
CENTER_NAME    = EARTH
REF_FRAME      = TEME
TIME_SYSTEM    = UTC
MEAN_ELEMENT_THEORY = SGP/SGP4

EPOCH          = 2026-02-01T06:00:02.000160
MEAN_MOTION    = 15.50719515
ECCENTRICITY   = .00015447
INCLINATION    = 42.9994
RA_OF_ASC_NODE = 74.6567
ARG_OF_PERICENTER = 271.7725
MEAN_ANOMALY   = 327.2970

EPHEMERIS_TYPE = 0
CLASSIFICATION_TYPE = U
NORAD_CAT_ID   = 67337
ELEMENT_SET_NO = 999
REV_AT_EPOCH   = 481
BSTAR          = -.58682492E-2
MEAN_MOTION_DOT = -.332076E-2
MEAN_MOTION_DDOT = 0

CCSDS_OMM_VERS = 2.0
CREATION_DATE  = 
ORIGINATOR     = 

OBJECT_NAME    = STARLINK-36413
OBJECT_ID      = 2026-003E
CENTER_NAME    = EARTH
REF_FRAME      = TEME
TIME_SYSTEM    = UTC
MEAN_ELEMENT_THEORY = SGP/SGP4

EPOCH          = 2026-02-01T06:00:02.000160
MEAN_MOTION    = 15.50716068
ECCENTRICITY   = .00014955
INCLINATION    = 42.9993
RA_OF_ASC_NODE = 74.6519
ARG_OF_PERICENTER = 272.4390
MEAN_ANOMALY   = 328.5494

EPHEMERIS_TYPE = 0
CLASSIFICATION_TYPE = U
NORAD_CAT_ID   = 67338
ELEMENT_SET_NO = 999
REV_AT_EPOCH   = 481
BSTAR          = -.5858614E-2
MEAN_MOTION_DOT = -.331511E-2
MEAN_MOTION_DDOT = 0

CCSDS_OMM_VERS = 2.0
CREATION_DATE  = 
ORIGINATOR     = 

OBJECT_NAME    = STARLINK-36451
OBJECT_ID      = 2026-003F
CENTER_NAME    = EARTH
REF_FRAME      = TEME
TIME_SYSTEM    = UTC
MEAN_ELEMENT_THEORY = SGP/SGP4

EPOCH          = 2026-02-01T06:00:02.000160
MEAN_MOTION    = 15.50718728
ECCENTRICITY   = .00016475
INCLINATION    = 42.9992
RA_OF_ASC_NODE = 74.6465
ARG_OF_PERICENTER = 271.8830
MEAN_ANOMALY   = 331.0187

EPHEMERIS_TYPE = 0
CLASSIFICATION_TYPE = U
NORAD_CAT_ID   = 67339
ELEMENT_SET_NO = 999
REV_AT_EPOCH   = 481
BSTAR          = -.57597817E-2
MEAN_MOTION_DOT = -.326182E-2
MEAN_MOTION_DDOT = 0

